[
    {
        "CCSDS_OMM_VERS": "3.0",
        "COMMENT": "GENERATED VIA SPACE-TRACK.ORG API",
        "CREATION_DATE": "2025-04-12T22:36:17",
        "ORIGINATOR": "18 SPCS",
        "OBJECT_NAME": "GALILEO 18 (26E)",
        "OBJECT_ID": "2016-069D",
        "CENTER_NAME": "EARTH",
        "REF_FRAME": "TEME",
        "TIME_SYSTEM": "UTC",
        "MEAN_ELEMENT_THEORY": "SGP4",
        "EPOCH": "2025-04-12T13:27:12.857472",
        "MEAN_MOTION": "1.70474699",
        "ECCENTRICITY": "0.00049100",
        "INCLINATION": "55.2390",
        "RA_OF_ASC_NODE": "113.0094",
        "ARG_OF_PERICENTER": "292.5176",
        "MEAN_ANOMALY": "67.4717",
        "EPHEMERIS_TYPE": "0",
        "CLASSIFICATION_TYPE": "U",
        "NORAD_CAT_ID": "41862",
        "ELEMENT_SET_NO": "999",
        "REV_AT_EPOCH": "5230",
        "BSTAR": "0.00000000000000",
        "MEAN_MOTION_DOT": "0.00000054",
        "MEAN_MOTION_DDOT": "0.0000000000000",
        "SEMIMAJOR_AXIS": "29600.239",
        "PERIOD": "844.700",
        "APOAPSIS": "23236.638",
        "PERIAPSIS": "23207.570",
        "OBJECT_TYPE": "PAYLOAD",
        "RCS_SIZE": "LARGE",
        "COUNTRY_CODE": "ESA",
        "LAUNCH_DATE": "2016-11-17",
        "SITE": "FRGUI",
        "DECAY_DATE": null,
        "FILE": "4700002",
        "GP_ID": "285461820",
        "TLE_LINE0": "0 GALILEO 18 (26E)",
        "TLE_LINE1": "1 41862U 16069D   25102.56056548  .00000054  00000-0  00000+0 0  9990",
        "TLE_LINE2": "2 41862  55.2390 113.0094 0004910 292.5176  67.4717  1.70474699 52300"
    }
]